DELTA 1 R/B             
1 20323U 89089B   25311.18346493  .00000465  00000+0  12376-3 0  9990
2 20323  97.0788 173.0508 0069979 148.6083 211.9321 14.50525926877971
ARIANE 40 R/B           
1 20443U 90005H   25311.15751737  .00000432  00000+0  15147-3 0  9994
2 20443  98.3292  10.3329 0009630 207.5621 152.5058 14.39755084875177
DELTA 2 R/B(1)          
1 20453U 90008B   25310.98208577  .00036267  00000+0  63843-3 0  9998
2 20453  35.6080 250.8578 0118559 213.3905 145.9307 15.41884288907100
COSMOS 2058             
1 20465U 90010A   25311.11228174  .00004244  00000+0  25883-3 0  9997
2 20465  82.4667 168.0778 0011460  39.5220 320.6843 15.10056006923736
SL-14 R/B               
1 20466U 90010B   25311.26562192  .00000727  00000+0  85525-4 0  9997
2 20466  82.5051  22.3579 0019431 347.7554  12.3186 14.83421814910335
SL-14 R/B               
1 20511U 90018B   25311.16570618  .00000534  00000+0  64189-4 0  9996
2 20511  82.5212 337.6186 0017578 131.8974 228.3743 14.81994648904439
HST                     
1 20580U 90037B   25310.66648323  .00008493  00000+0  30006-3 0  9998
2 20580  28.4657 157.8958 0001635 179.8575 180.2020 15.27343532754474
SL-16 R/B               
1 20625U 90046B   25311.11675415 -.00000154  00000+0 -55120-4 0  9994
2 20625  70.9987 195.3320 0012359 138.1867 222.0202 14.14991968831053
COSMOS 2084             
1 20663U 90055A   25311.28340817  .00005305  00000+0  38340-3 0  9994
2 20663  62.7924  32.7769 0037519 170.4853 189.6966 15.04695997917890
SL-6 R/B(2)             
1 20666U 90055D   25311.23831579  .00003647  00000+0  28526-3 0  9994
2 20666  62.7837 310.0205 0010719 277.7471  82.2410 15.02806804919784
SL-8 R/B                
1 20775U 90078B   25311.21985804  .00020239  00000+0  62474-3 0  9995
2 20775  82.9072   1.0468 0382277  64.6544 299.3743 14.84021415791103
SL-8 R/B                
1 21088U 91006B   25311.31352410  .00000160  00000+0  14494-3 0  9997
2 21088  82.9406 261.0648 0023097  21.4129  87.1783 13.77482323747223
