CCSDS_OMM_VERS = 2.0
CREATION_DATE  = 
ORIGINATOR     = 

OBJECT_NAME    = DELTA 1 R/B
OBJECT_ID      = 1989-089B
CENTER_NAME    = EARTH
REF_FRAME      = TEME
TIME_SYSTEM    = UTC
MEAN_ELEMENT_THEORY = SGP/SGP4

EPOCH          = 2025-11-07T04:24:11.369952
MEAN_MOTION    = 14.50525926
ECCENTRICITY   = .00699794
INCLINATION    = 97.0788
RA_OF_ASC_NODE = 173.0508
ARG_OF_PERICENTER = 148.6083
MEAN_ANOMALY   = 211.9321

EPHEMERIS_TYPE = 0
CLASSIFICATION_TYPE = U
NORAD_CAT_ID   = 20323
ELEMENT_SET_NO = 999
REV_AT_EPOCH   = 87797
BSTAR          = .12375744E-3
MEAN_MOTION_DOT = .465E-5
MEAN_MOTION_DDOT = 0

CCSDS_OMM_VERS = 2.0
CREATION_DATE  = 
ORIGINATOR     = 

OBJECT_NAME    = ARIANE 40 R/B
OBJECT_ID      = 1990-005H
CENTER_NAME    = EARTH
REF_FRAME      = TEME
TIME_SYSTEM    = UTC
MEAN_ELEMENT_THEORY = SGP/SGP4

EPOCH          = 2025-11-07T03:46:49.500768
MEAN_MOTION    = 14.39755084
ECCENTRICITY   = .00096303
INCLINATION    = 98.3292
RA_OF_ASC_NODE = 10.3329
ARG_OF_PERICENTER = 207.5621
MEAN_ANOMALY   = 152.5058

EPHEMERIS_TYPE = 0
CLASSIFICATION_TYPE = U
NORAD_CAT_ID   = 20443
ELEMENT_SET_NO = 999
REV_AT_EPOCH   = 87517
BSTAR          = .15146617E-3
MEAN_MOTION_DOT = .432E-5
MEAN_MOTION_DDOT = 0

CCSDS_OMM_VERS = 2.0
CREATION_DATE  = 
ORIGINATOR     = 

OBJECT_NAME    = DELTA 2 R/B(1)
OBJECT_ID      = 1990-008B
CENTER_NAME    = EARTH
REF_FRAME      = TEME
TIME_SYSTEM    = UTC
MEAN_ELEMENT_THEORY = SGP/SGP4

EPOCH          = 2025-11-06T23:34:12.210528
MEAN_MOTION    = 15.41884288
ECCENTRICITY   = .01185593
INCLINATION    = 35.6080
RA_OF_ASC_NODE = 250.8578
ARG_OF_PERICENTER = 213.3905
MEAN_ANOMALY   = 145.9307

EPHEMERIS_TYPE = 0
CLASSIFICATION_TYPE = U
NORAD_CAT_ID   = 20453
ELEMENT_SET_NO = 999
REV_AT_EPOCH   = 90710
BSTAR          = .63843E-3
MEAN_MOTION_DOT = .36267E-3
MEAN_MOTION_DDOT = 0

CCSDS_OMM_VERS = 2.0
CREATION_DATE  = 
ORIGINATOR     = 

OBJECT_NAME    = COSMOS 2058
OBJECT_ID      = 1990-010A
CENTER_NAME    = EARTH
REF_FRAME      = TEME
TIME_SYSTEM    = UTC
MEAN_ELEMENT_THEORY = SGP/SGP4

EPOCH          = 2025-11-07T02:41:41.142336
MEAN_MOTION    = 15.10056006
ECCENTRICITY   = .00114603
INCLINATION    = 82.4667
RA_OF_ASC_NODE = 168.0778
ARG_OF_PERICENTER = 39.5220
MEAN_ANOMALY   = 320.6843

EPHEMERIS_TYPE = 0
CLASSIFICATION_TYPE = U
NORAD_CAT_ID   = 20465
ELEMENT_SET_NO = 999
REV_AT_EPOCH   = 92373
BSTAR          = .25883097E-3
MEAN_MOTION_DOT = .4244E-4
MEAN_MOTION_DDOT = 0

CCSDS_OMM_VERS = 2.0
CREATION_DATE  = 
ORIGINATOR     = 

OBJECT_NAME    = SL-14 R/B
OBJECT_ID      = 1990-010B
CENTER_NAME    = EARTH
REF_FRAME      = TEME
TIME_SYSTEM    = UTC
MEAN_ELEMENT_THEORY = SGP/SGP4

EPOCH          = 2025-11-07T06:22:29.733888
MEAN_MOTION    = 14.83421814
ECCENTRICITY   = .00194313
INCLINATION    = 82.5051
RA_OF_ASC_NODE = 22.3579
ARG_OF_PERICENTER = 347.7554
MEAN_ANOMALY   = 12.3186

EPHEMERIS_TYPE = 0
CLASSIFICATION_TYPE = U
NORAD_CAT_ID   = 20466
ELEMENT_SET_NO = 999
REV_AT_EPOCH   = 91033
BSTAR          = .85524515E-4
MEAN_MOTION_DOT = .727E-5
MEAN_MOTION_DDOT = 0

CCSDS_OMM_VERS = 2.0
CREATION_DATE  = 
ORIGINATOR     = 

OBJECT_NAME    = SL-14 R/B
OBJECT_ID      = 1990-018B
CENTER_NAME    = EARTH
REF_FRAME      = TEME
TIME_SYSTEM    = UTC
MEAN_ELEMENT_THEORY = SGP/SGP4

EPOCH          = 2025-11-07T03:58:37.013952
MEAN_MOTION    = 14.81994648
ECCENTRICITY   = .00175789
INCLINATION    = 82.5212
RA_OF_ASC_NODE = 337.6186
ARG_OF_PERICENTER = 131.8974
MEAN_ANOMALY   = 228.3743

EPHEMERIS_TYPE = 0
CLASSIFICATION_TYPE = U
NORAD_CAT_ID   = 20511
ELEMENT_SET_NO = 999
REV_AT_EPOCH   = 90443
BSTAR          = .64189176E-4
MEAN_MOTION_DOT = .534E-5
MEAN_MOTION_DDOT = 0

CCSDS_OMM_VERS = 2.0
CREATION_DATE  = 
ORIGINATOR     = 

OBJECT_NAME    = HST
OBJECT_ID      = 1990-037B
CENTER_NAME    = EARTH
REF_FRAME      = TEME
TIME_SYSTEM    = UTC
MEAN_ELEMENT_THEORY = SGP/SGP4

EPOCH          = 2025-11-06T15:59:44.151072
MEAN_MOTION    = 15.27343532
ECCENTRICITY   = .0001635
INCLINATION    = 28.4657
RA_OF_ASC_NODE = 157.8958
ARG_OF_PERICENTER = 179.8575
MEAN_ANOMALY   = 180.2020

EPHEMERIS_TYPE = 0
CLASSIFICATION_TYPE = U
NORAD_CAT_ID   = 20580
ELEMENT_SET_NO = 999
REV_AT_EPOCH   = 75447
BSTAR          = .30006E-3
MEAN_MOTION_DOT = .8493E-4
MEAN_MOTION_DDOT = 0

CCSDS_OMM_VERS = 2.0
CREATION_DATE  = 
ORIGINATOR     = 

OBJECT_NAME    = SL-16 R/B
OBJECT_ID      = 1990-046B
CENTER_NAME    = EARTH
REF_FRAME      = TEME
TIME_SYSTEM    = UTC
MEAN_ELEMENT_THEORY = SGP/SGP4

EPOCH          = 2025-11-07T02:48:07.558560
MEAN_MOTION    = 14.14991968
ECCENTRICITY   = .00123595
INCLINATION    = 70.9987
RA_OF_ASC_NODE = 195.3320
ARG_OF_PERICENTER = 138.1867
MEAN_ANOMALY   = 222.0202

EPHEMERIS_TYPE = 0
CLASSIFICATION_TYPE = U
NORAD_CAT_ID   = 20625
ELEMENT_SET_NO = 999
REV_AT_EPOCH   = 83105
BSTAR          = -.55120246E-4
MEAN_MOTION_DOT = -.154E-5
MEAN_MOTION_DDOT = 0

CCSDS_OMM_VERS = 2.0
CREATION_DATE  = 
ORIGINATOR     = 

OBJECT_NAME    = COSMOS 2084
OBJECT_ID      = 1990-055A
CENTER_NAME    = EARTH
REF_FRAME      = TEME
TIME_SYSTEM    = UTC
MEAN_ELEMENT_THEORY = SGP/SGP4

EPOCH          = 2025-11-07T06:48:06.465888
MEAN_MOTION    = 15.04695997
ECCENTRICITY   = .00375198
INCLINATION    = 62.7924
RA_OF_ASC_NODE = 32.7769
ARG_OF_PERICENTER = 170.4853
MEAN_ANOMALY   = 189.6966

EPHEMERIS_TYPE = 0
CLASSIFICATION_TYPE = U
NORAD_CAT_ID   = 20663
ELEMENT_SET_NO = 999
REV_AT_EPOCH   = 91789
BSTAR          = .38340166E-3
MEAN_MOTION_DOT = .5305E-4
MEAN_MOTION_DDOT = 0

CCSDS_OMM_VERS = 2.0
CREATION_DATE  = 
ORIGINATOR     = 

OBJECT_NAME    = SL-6 R/B(2)
OBJECT_ID      = 1990-055D
CENTER_NAME    = EARTH
REF_FRAME      = TEME
TIME_SYSTEM    = UTC
MEAN_ELEMENT_THEORY = SGP/SGP4

EPOCH          = 2025-11-07T05:43:10.484256
MEAN_MOTION    = 15.02806804
ECCENTRICITY   = .00107193
INCLINATION    = 62.7837
RA_OF_ASC_NODE = 310.0205
ARG_OF_PERICENTER = 277.7471
MEAN_ANOMALY   = 82.2410

EPHEMERIS_TYPE = 0
CLASSIFICATION_TYPE = U
NORAD_CAT_ID   = 20666
ELEMENT_SET_NO = 999
REV_AT_EPOCH   = 91978
BSTAR          = .28525763E-3
MEAN_MOTION_DOT = .3647E-4
MEAN_MOTION_DDOT = 0

CCSDS_OMM_VERS = 2.0
CREATION_DATE  = 
ORIGINATOR     = 

OBJECT_NAME    = SL-8 R/B
OBJECT_ID      = 1990-078B
CENTER_NAME    = EARTH
REF_FRAME      = TEME
TIME_SYSTEM    = UTC
MEAN_ELEMENT_THEORY = SGP/SGP4

EPOCH          = 2025-11-07T05:16:35.734656
MEAN_MOTION    = 14.84021415
ECCENTRICITY   = .03822773
INCLINATION    = 82.9072
RA_OF_ASC_NODE = 1.0468
ARG_OF_PERICENTER = 64.6544
MEAN_ANOMALY   = 299.3743

EPHEMERIS_TYPE = 0
CLASSIFICATION_TYPE = U
NORAD_CAT_ID   = 20775
ELEMENT_SET_NO = 999
REV_AT_EPOCH   = 79110
BSTAR          = .62474055E-3
MEAN_MOTION_DOT = .20239E-3
MEAN_MOTION_DDOT = 0

CCSDS_OMM_VERS = 2.0
CREATION_DATE  = 
ORIGINATOR     = 

OBJECT_NAME    = SL-8 R/B
OBJECT_ID      = 1991-006B
CENTER_NAME    = EARTH
REF_FRAME      = TEME
TIME_SYSTEM    = UTC
MEAN_ELEMENT_THEORY = SGP/SGP4

EPOCH          = 2025-11-07T07:31:28.482240
MEAN_MOTION    = 13.77482323
ECCENTRICITY   = .00230971
INCLINATION    = 82.9406
RA_OF_ASC_NODE = 261.0648
ARG_OF_PERICENTER = 21.4129
MEAN_ANOMALY   = 87.1783

EPHEMERIS_TYPE = 0
CLASSIFICATION_TYPE = U
NORAD_CAT_ID   = 21088
ELEMENT_SET_NO = 999
REV_AT_EPOCH   = 74722
BSTAR          = .14494118E-3
MEAN_MOTION_DOT = .16E-5
MEAN_MOTION_DDOT = 0

